STARLINK-4147           
1 53256U 22086Q   22227.58334491 -.00046437  00000+0 -32784-3 0  9993
2 53256  53.2194 294.2259 0002846  11.9671 343.9693 15.73223942  1304
STARLINK-4144           
1 53257U 22086R   22227.58334491  .00055262  00000+0  39628-3 0  9992
2 53257  53.2191 294.2204 0002486  21.4908 336.8529 15.73156378  1308
STARLINK-4127           
1 53258U 22086S   22227.58334491 -.00038448  00000+0 -27072-3 0  9992
2 53258  53.2191 294.2226 0002472  17.6599 339.5155 15.73200201  1301
STARLINK-4140           
1 53259U 22086T   22227.58334491 -.00037562  00000+0 -26431-3 0  9997
2 53259  53.2194 294.2202 0002488  20.8970 338.0489 15.73203753  1304
STARLINK-4136           
1 53260U 22086U   22227.58334491 -.00041247  00000+0 -29075-3 0  9991
2 53260  53.2188 294.2196 0002501  21.9184 335.8346 15.73207612  1301
STARLINK-4062           
1 53261U 22086V   22227.58334491 -.00029449  00000+0 -20590-3 0  9995
2 53261  53.2192 294.2166 0003059  19.4944 341.1563 15.73218501  1310
STARLINK-4085           
1 53262U 22086W   22227.58334491  .00035013  00000+0  25320-3 0  9994
2 53262  53.2189 294.2169 0002728  17.6113 341.9479 15.73164880  1303
STARLINK-4130           
1 53263U 22086X   22227.58334491 -.00032865  00000+0 -23056-3 0  9993
2 53263  53.2180 294.2161 0002484  26.2661 335.0998 15.73205261  1310
STARLINK-3950           
1 53264U 22086Y   22227.58334491 -.00030517  00000+0 -21386-3 0  9990
2 53264  53.2189 294.2159 0002243  24.8491 335.3185 15.73190140  1304
STARLINK-4097           
1 53265U 22086Z   22227.58334491 -.00036151  00000+0 -25419-3 0  9992
2 53265  53.2194 294.2134 0002631  16.8505 345.6799 15.73201114  1301
STARLINK-4058           
1 53266U 22086AA  22227.58334491 -.00036509  00000+0 -25672-3 0  9991
2 53266  53.2191 294.2131 0002662  16.6502 345.2586 15.73204725  1306
STARLINK-4060           
1 53267U 22086AB  22227.58334491  .00068033  00000+0  48619-3 0  9993
2 53267  53.2192 294.2091 0002875  24.3244 339.9904 15.73151201  1302
STARLINK-4109           
1 53268U 22086AC  22227.58334491 -.00035980  00000+0 -25310-3 0  9994
2 53268  53.2189 294.2097 0002690  24.7590 338.4036 15.73187994  1306
STARLINK-4057           
1 53269U 22086AD  22227.58334491  .00067285  00000+0  48099-3 0  9995
2 53269  53.2192 294.2070 0002287  29.3905 336.1091 15.73150060  1305
STARLINK-4069           
1 53271U 22086AF  22227.58334491  .00031503  00000+0  22816-3 0  9991
2 53271  53.2191 294.2041 0002677  27.1566 339.5060 15.73184945  1309
STARLINK-4122           
1 53272U 22086AG  22227.58334491 -.00034197  00000+0 -23980-3 0  9999
2 53272  53.2191 294.2072 0003017  17.6023 347.2755 15.73233107  1307
STARLINK-4051           
1 53273U 22086AH  22227.58334491  .00057658  00000+0  41302-3 0  9993
2 53273  53.2189 294.2010 0002116  32.2460 335.6252 15.73164633  1304
STARLINK-4050           
1 53274U 22086AJ  22227.58334491  .00068401  00000+0  48887-3 0  9997
2 53274  53.2190 294.2043 0002242  25.6924 340.4216 15.73148083  1309
STARLINK-4179           
1 53275U 22086AK  22227.58334491  .00056867  00000+0  40748-3 0  9999
2 53275  53.2190 294.1997 0003177  19.0396 349.4517 15.73160045  1300
STARLINK-4174           
1 53276U 22086AL  22227.58334491 -.00034977  00000+0 -24573-3 0  9998
2 53276  53.2195 294.2044 0002773  20.4031 346.8738 15.73203183  1300
STARLINK-4178           
1 53277U 22086AM  22227.58334491  .00065464  00000+0  46822-3 0  9993
2 53277  53.2189 294.1962 0002438  35.6644 334.6057 15.73148203  1308
STARLINK-4180           
1 53278U 22086AN  22227.58334491  .00068149  00000+0  48742-3 0  9990
2 53278  53.2187 294.1975 0002333  31.9954 337.1220 15.73132514  1306
STARLINK-4169           
1 53280U 22086AQ  22227.58334491  .00047269  00000+0  33965-3 0  9994
2 53280  53.2189 294.1973 0002337  28.1916 341.4806 15.73175772  1300
STARLINK-4182           
1 53281U 22086AR  22227.58334491 -.00034646  00000+0 -24338-3 0  9996
2 53281  53.2190 294.1932 0002737  19.4705 352.5870 15.73200224  1306
STARLINK-4164           
1 53282U 22086AS  22227.66667824  .00077553  00000+0  55290-3 0  9998
2 53282  53.2188 293.7834 0002314  32.6114  90.4888 15.73156049  4116
STARLINK-4175           
1 53283U 22086AT  22227.58334491 -.00096454  00000+0 -68971-3 0  9994
2 53283  53.2194 294.1936 0002188  25.2247 347.4897 15.73230844  1305
STARLINK-4172           
1 53284U 22086AU  22227.58334491 -.00043806  00000+0 -30926-3 0  9997
2 53284  53.2189 294.1936 0002238  23.4617 348.0388 15.73201388  1300
STARLINK-4173           
1 53285U 22086AV  22227.58334491 -.00040278  00000+0 -28380-3 0  9999
2 53285  53.2193 294.1898 0002127  23.9200 350.5269 15.73208244  1307
STARLINK-4165           
1 53286U 22086AW  22227.58334491 -.00034566  00000+0 -24285-3 0  9993
2 53286  53.2188 294.1899 0002053  31.0940 342.1780 15.73199496  1305
STARLINK-4107           
1 53287U 22086AX  22227.58334491 -.00021151  00000+0 -14665-3 0  9991
2 53287  53.2175 294.1873 0002326  19.0064 356.6409 15.73197453  1309
STARLINK-4162           
1 53288U 22086AY  22227.58334491  .00067599  00000+0  48298-3 0  9995
2 53288  53.2184 294.1876 0002266  31.0483 342.7740 15.73160632  1308
STARLINK-4176           
1 53289U 22086AZ  22227.58334491 -.00054313  00000+0 -38459-3 0  9996
2 53289  53.2189 294.1841 0002135  23.6818 353.1233 15.73225639  1302
STARLINK-4149           
1 53290U 22086BA  22227.58334491 -.00025321  00000+0 -17649-3 0  9993
2 53290  53.2187 294.1862 0002113  18.2692 356.7667 15.73203137  1300
STARLINK-4166           
1 53291U 22086BB  22227.58334491  .00056208  00000+0  40272-3 0  9998
2 53291  53.2175 294.1838 0002210  29.1283 348.2887 15.73169861  1301
STARLINK-4159           
1 53292U 22086BC  22227.58334491 -.00027575  00000+0 -19254-3 0  9992
2 53292  53.2187 294.1841 0002297  31.1930 345.0041 15.73215109  1300
STARLINK-4148           
1 53293U 22086BD  22227.58334491 -.00029138  00000+0 -20378-3 0  9999
2 53293  53.2191 294.1828 0002273  31.7354 346.2276 15.73210367  1305
STARLINK-4146           
1 53294U 22086BE  22227.58334491 -.00047571  00000+0 -33621-3 0  9996
2 53294  53.2186 294.1792 0002033  24.0941 354.5373 15.73213749  1308
FALCON 9 DEB            
1 53295U 22086BF  22226.58739622  .04626125  12149-4  64647-3 0  9995
2 53295  53.2101 294.9156 0018208 110.6336 249.6665 16.33650954  3398
FALCON 9 DEB            
1 53296U 22086BG  22226.46302418  .03438290  12074-4  66923-3 0  9991
2 53296  53.2039 295.5561 0020911 104.8466 255.4896 16.30230565  3377
FALCON 9 DEB            
1 53298U 22086BJ  22226.67575909  .08699150  12476-4  25744-3 0  9994
2 53298  53.2145 294.0015 0006317  92.5180 267.6594 16.44839634  3417
2022-087A               
1 53299U 22087A   22227.65485973  .00003952  00000+0  17991-3 0  9997
2 53299  97.4046 301.7710 0014406 210.8918 315.1037 15.21193198  2960
2022-087B               
1 53300U 22087B   22227.44593113  .00003722  00000+0  16780-3 0  9993
2 53300  97.4043 301.5757 0014358 218.8280 269.7486 15.21562581  2930
2022-087C               
1 53301U 22087C   22227.71305250  .00003519  00000+0  15853-3 0  9991
2 53301  97.4037 301.8400 0015127 217.8019 297.1393 15.21619598  2973
2022-087D               
1 53302U 22087D   22227.45512731  .00007053  00000+0  31176-3 0  9990
2 53302  97.4047 301.5961 0014146 225.0788 335.2133 15.21929031  2936
2022-087E               
1 53303U 22087E   22227.70833288  .00004229  00000+0  18797-3 0  9998
2 53303  97.4073 301.8539 0015269 223.2098 288.8208 15.21959179  2977
ZK-1A R/B               
1 53304U 22087F   22227.22527505  .00022019  00000+0  22801-3 0  9996
2 53304  97.2787 301.8093 0173701 242.7086 115.6384 15.48134396  2946
1998-067TQ              
1 53305U 98067TQ  22227.42626386  .00032891  00000+0  55330-3 0  9999
2 53305  51.6421  43.0248 0003418 122.4723 237.6597 15.51420280  3858
1998-067TR              
1 53306U 98067TR  22227.48812280  .00035716  00000+0  59483-3 0  9998
2 53306  51.6422  42.6880 0002929 127.4836 232.6420 15.51661864  3869
1998-067TS              
1 53307U 98067TS  22227.48782910  .00035731  00000+0  59485-3 0  9994
2 53307  51.6419  42.6853 0002902 115.3506 244.7785 15.51672312  3898
RS3S                    
1 53308U 98067TT  22227.48754971  .00034677  00000+0  57756-3 0  9998
2 53308  51.6421  42.6842 0002698 118.8482 241.2779 15.51675239  3923
RS1S                    
1 53309U 98067TU  22227.48702382  .00035040  00000+0  58245-3 0  9997
2 53309  51.6420  42.6799 0003304 133.9999 226.1263 15.51724414  3874
RS5S                    
1 53310U 98067TV  22227.48706775  .00033450  00000+0  55726-3 0  9993
2 53310  51.6425  42.6812 0003001 135.5009 224.6222 15.51685351  3909
RS6S                    
1 53311U 98067TW  22227.48590884  .00038101  00000+0  62992-3 0  9997
2 53311  51.6419  42.6724 0002406 112.3166 247.8079 15.51837308  3920
RS9S                    
1 53312U 98067TX  22227.55058803  .00035361  00000+0  58648-3 0  9994
2 53312  51.6423  42.3543 0003502 137.0801 223.0463 15.51781143  3872
RS12S                   
1 53313U 98067TY  22227.48550594  .00035729  00000+0  59151-3 0  9999
2 53313  51.6422  42.6703 0003028 142.1355 217.9849 15.51828280  3916
2022-088A               
1 53316U 22088A   22227.74392361  .00010207  00000+0  42361-3 0  9996
2 53316  34.9991  16.6103 0006552  56.3151 135.7868 15.23067962  2619
2022-088B               
1 53317U 22088B   22227.44749582  .00025972  00000+0  10161-2 0  9992
2 53317  35.0010  18.3519 0008270  46.8323   3.1435 15.24885413  2571
2022-088C               
1 53318U 22088C   22227.45349791  .00005633  00000+0  23560-3 0  9992
2 53318  35.0020  18.4330 0005033   8.8068  30.1629 15.22936072  2574
2022-088D               
1 53319U 22088D   22227.44518043  .00015106  00000+0  59185-3 0  9998
2 53319  34.9998  18.3348 0008349  60.1119 349.3232 15.24920559  2576
